{"fetched_at":"2026-07-09T18:16:42.472Z","source":"https://celestrak.org/NORAD/elements/gp.php?GROUP=oneweb&FORMAT=JSON","constellation":"oneweb","records":[{"OBJECT_NAME":"ONEWEB-0012","OBJECT_ID":"2019-010A","EPOCH":"2026-07-08T14:35:57.450912","CLASSIFICATION_TYPE":"U","MEAN_MOTION":13.16594756,"ECCENTRICITY":0.00016492,"INCLINATION":87.9071,"RA_OF_ASC_NODE":224.531,"ARG_OF_PERICENTER":92.9264,"MEAN_ANOMALY":267.2056,"EPHEMERIS_TYPE":0,"NORAD_CAT_ID":44057,"ELEMENT_SET_NO":999,"REV_AT_EPOCH":35438,"BSTAR":-0.00024702694,"MEAN_MOTION_DOT":-8.2e-7,"MEAN_MOTION_DDOT":0},{"OBJECT_NAME":"ONEWEB-0010","OBJECT_ID":"2019-010B","EPOCH":"2026-07-08T15:12:27.585504","CLASSIFICATION_TYPE":"U","MEAN_MOTION":13.16592666,"ECCENTRICITY":0.00022227,"INCLINATION":87.9087,"RA_OF_ASC_NODE":224.5209,"ARG_OF_PERICENTER":106.1506,"MEAN_ANOMALY":253.987,"EPHEMERIS_TYPE":0,"NORAD_CAT_ID":44058,"ELEMENT_SET_NO":999,"REV_AT_EPOCH":35443,"BSTAR":0.00025779779,"MEAN_MOTION_DOT":0.00000111,"MEAN_MOTION_DDOT":0},{"OBJECT_NAME":"ONEWEB-0008","OBJECT_ID":"2019-010C","EPOCH":"2026-07-08T15:48:55.916064","CLASSIFICATION_TYPE":"U","MEAN_MOTION":13.16593391,"ECCENTRICITY":0.00022359,"INCLINATION":87.9082,"RA_OF_ASC_NODE":224.5112,"ARG_OF_PERICENTER":89.6803,"MEAN_ANOMALY":270.4584,"EPHEMERIS_TYPE":0,"NORAD_CAT_ID":44059,"ELEMENT_SET_NO":999,"REV_AT_EPOCH":35455,"BSTAR":-0.00015396021,"MEAN_MOTION_DOT":-4.6e-7,"MEAN_MOTION_DDOT":0},{"OBJECT_NAME":"ONEWEB-0007","OBJECT_ID":"2019-010D","EPOCH":"2026-07-08T17:04:03.976896","CLASSIFICATION_TYPE":"U","MEAN_MOTION":13.1554756,"ECCENTRICITY":0.00018736,"INCLINATION":87.899,"RA_OF_ASC_NODE":254.9328,"ARG_OF_PERICENTER":104.7281,"MEAN_ANOMALY":255.4057,"EPHEMERIS_TYPE":0,"NORAD_CAT_ID":44060,"ELEMENT_SET_NO":999,"REV_AT_EPOCH":35420,"BSTAR":0.00020907306,"MEAN_MOTION_DOT":9.2e-7,"MEAN_MOTION_DDOT":0},{"OBJECT_NAME":"ONEWEB-0006","OBJECT_ID":"2019-010E","EPOCH":"2026-07-08T17:09:45.940320","CLASSIFICATION_TYPE":"U","MEAN_MOTION":13.15550563,"ECCENTRICITY":0.00021924,"INCLINATION":87.9003,"RA_OF_ASC_NODE":254.8981,"ARG_OF_PERICENTER":101.8744,"MEAN_ANOMALY":258.2633,"EPHEMERIS_TYPE":0,"NORAD_CAT_ID":44061,"ELEMENT_SET_NO":999,"REV_AT_EPOCH":35425,"BSTAR":0.00042262098,"MEAN_MOTION_DOT":0.00000172,"MEAN_MOTION_DDOT":0},{"OBJECT_NAME":"ONEWEB-0011","OBJECT_ID":"2019-010F","EPOCH":"2026-07-08T16:24:07.257312","CLASSIFICATION_TYPE":"U","MEAN_MOTION":13.15549076,"ECCENTRICITY":0.00022561,"INCLINATION":87.8999,"RA_OF_ASC_NODE":254.9149,"ARG_OF_PERICENTER":98.9804,"MEAN_ANOMALY":261.1581,"EPHEMERIS_TYPE":0,"NORAD_CAT_ID":44062,"ELEMENT_SET_NO":999,"REV_AT_EPOCH":35424,"BSTAR":-0.00020498612,"MEAN_MOTION_DOT":-6.4e-7,"MEAN_MOTION_DDOT":0},{"OBJECT_NAME":"ONEWEB-0013","OBJECT_ID":"2020-008A","EPOCH":"2026-07-08T15:23:42.579456","CLASSIFICATION_TYPE":"U","MEAN_MOTION":13.09461356,"ECCENTRICITY":0.00012188,"INCLINATION":87.8502,"RA_OF_ASC_NODE":48.4948,"ARG_OF_PERICENTER":50.4928,"MEAN_ANOMALY":309.6306,"EPHEMERIS_TYPE":0,"NORAD_CAT_ID":45131,"ELEMENT_SET_NO":999,"REV_AT_EPOCH":30887,"BSTAR":-0.0018760604,"MEAN_MOTION_DOT":-0.00000634,"MEAN_MOTION_DDOT":0},{"OBJECT_NAME":"ONEWEB-0017","OBJECT_ID":"2020-008B","EPOCH":"2026-07-08T14:36:52.969824","CLASSIFICATION_TYPE":"U","MEAN_MOTION":13.10377894,"ECCENTRICITY":0.00019265,"INCLINATION":87.8817,"RA_OF_ASC_NODE":31.9996,"ARG_OF_PERICENTER":92.2134,"MEAN_ANOMALY":267.9213,"EPHEMERIS_TYPE":0,"NORAD_CAT_ID":45132,"ELEMENT_SET_NO":999,"REV_AT_EPOCH":31075,"BSTAR":-0.00028542367,"MEAN_MOTION_DOT":-8.7e-7,"MEAN_MOTION_DDOT":0},{"OBJECT_NAME":"ONEWEB-0020","OBJECT_ID":"2020-008C","EPOCH":"2026-07-08T12:02:54.026880","CLASSIFICATION_TYPE":"U","MEAN_MOTION":13.10369241,"ECCENTRICITY":0.00018603,"INCLINATION":87.8817,"RA_OF_ASC_NODE":32.0201,"ARG_OF_PERICENTER":85.5796,"MEAN_ANOMALY":274.5544,"EPHEMERIS_TYPE":0,"NORAD_CAT_ID":45133,"ELEMENT_SET_NO":999,"REV_AT_EPOCH":31113,"BSTAR":-0.0010398661,"MEAN_MOTION_DOT":-0.0000035,"MEAN_MOTION_DDOT":0},{"OBJECT_NAME":"ONEWEB-0021","OBJECT_ID":"2020-008D","EPOCH":"2026-07-08T14:14:49.704576","CLASSIFICATION_TYPE":"U","MEAN_MOTION":13.10372242,"ECCENTRICITY":0.00016905,"INCLINATION":87.8813,"RA_OF_ASC_NODE":32.0165,"ARG_OF_PERICENTER":88.2363,"MEAN_ANOMALY":271.8958,"EPHEMERIS_TYPE":0,"NORAD_CAT_ID":45134,"ELEMENT_SET_NO":999,"REV_AT_EPOCH":31145,"BSTAR":-0.0020645041,"MEAN_MOTION_DOT":-0.00000708,"MEAN_MOTION_DDOT":0},{"OBJECT_NAME":"ONEWEB-0023","OBJECT_ID":"2020-008F","EPOCH":"2026-07-08T14:30:43.457760","CLASSIFICATION_TYPE":"U","MEAN_MOTION":13.10374787,"ECCENTRICITY":0.00018793,"INCLINATION":87.883,"RA_OF_ASC_NODE":31.9981,"ARG_OF_PERICENTER":80.8251,"MEAN_ANOMALY":279.3089,"EPHEMERIS_TYPE":0,"NORAD_CAT_ID":45136,"ELEMENT_SET_NO":999,"REV_AT_EPOCH":31088,"BSTAR":-0.001269247,"MEAN_MOTION_DOT":-0.0000043,"MEAN_MOTION_DDOT":0},{"OBJECT_NAME":"ONEWEB-0024","OBJECT_ID":"2020-008G","EPOCH":"2026-07-08T12:00:38.544768","CLASSIFICATION_TYPE":"U","MEAN_MOTION":13.10369636,"ECCENTRICITY":0.00018823,"INCLINATION":87.8823,"RA_OF_ASC_NODE":32.0119,"ARG_OF_PERICENTER":92.0745,"MEAN_ANOMALY":268.0597,"EPHEMERIS_TYPE":0,"NORAD_CAT_ID":45137,"ELEMENT_SET_NO":999,"REV_AT_EPOCH":31103,"BSTAR":-0.00080355718,"MEAN_MOTION_DOT":-0.00000268,"MEAN_MOTION_DDOT":0},{"OBJECT_NAME":"ONEWEB-0025","OBJECT_ID":"2020-008H","EPOCH":"2026-07-08T12:00:15.223680","CLASSIFICATION_TYPE":"U","MEAN_MOTION":13.10368863,"ECCENTRICITY":0.00022841,"INCLINATION":87.8825,"RA_OF_ASC_NODE":32.0021,"ARG_OF_PERICENTER":82.144,"MEAN_ANOMALY":277.9947,"EPHEMERIS_TYPE":0,"NORAD_CAT_ID":45138,"ELEMENT_SET_NO":999,"REV_AT_EPOCH":31136,"BSTAR":-0.00088362013,"MEAN_MOTION_DOT":-0.00000296,"MEAN_MOTION_DDOT":0},{"OBJECT_NAME":"ONEWEB-0026","OBJECT_ID":"2020-008J","EPOCH":"2026-07-08T21:40:32.261088","CLASSIFICATION_TYPE":"U","MEAN_MOTION":13.11415396,"ECCENTRICITY":0.00019719,"INCLINATION":87.8878,"RA_OF_ASC_NODE":16.7436,"ARG_OF_PERICENTER":91.69,"MEAN_ANOMALY":268.4454,"EPHEMERIS_TYPE":0,"NORAD_CAT_ID":45139,"ELEMENT_SET_NO":999,"REV_AT_EPOCH":31395,"BSTAR":0.0010771134,"MEAN_MOTION_DOT":0.00000394,"MEAN_MOTION_DDOT":0},{"OBJECT_NAME":"ONEWEB-0028","OBJECT_ID":"2020-008K","EPOCH":"2026-07-08T21:05:08.022912","CLASSIFICATION_TYPE":"U","MEAN_MOTION":13.11418267,"ECCENTRICITY":0.00013817,"INCLINATION":87.8875,"RA_OF_ASC_NODE":16.7558,"ARG_OF_PERICENTER":75.0455,"MEAN_ANOMALY":285.0826,"EPHEMERIS_TYPE":0,"NORAD_CAT_ID":45140,"ELEMENT_SET_NO":999,"REV_AT_EPOCH":31146,"BSTAR":0.00043614304,"MEAN_MOTION_DOT":0.00000167,"MEAN_MOTION_DDOT":0},{"OBJECT_NAME":"ONEWEB-0032","OBJECT_ID":"2020-008L","EPOCH":"2026-07-08T14:39:31.037760","CLASSIFICATION_TYPE":"U","MEAN_MOTION":13.10375338,"ECCENTRICITY":0.00015101,"INCLINATION":87.8819,"RA_OF_ASC_NODE":32.0007,"ARG_OF_PERICENTER":72.7077,"MEAN_ANOMALY":287.4215,"EPHEMERIS_TYPE":0,"NORAD_CAT_ID":45141,"ELEMENT_SET_NO":999,"REV_AT_EPOCH":31110,"BSTAR":-0.00049550767,"MEAN_MOTION_DOT":-0.0000016,"MEAN_MOTION_DDOT":0}]}
