ONEWEB-0012             
1 44057U 19010A   26189.60830383 -.00000082  00000+0 -24703-3 0  9998
2 44057  87.9071 224.5310 0001649  92.9264 267.2056 13.16594756354381
ONEWEB-0010             
1 44058U 19010B   26189.63365261  .00000111  00000+0  25780-3 0  9997
2 44058  87.9087 224.5209 0002222 106.1506 253.9870 13.16592666354431
ONEWEB-0008             
1 44059U 19010C   26189.65898051 -.00000046  00000+0 -15396-3 0  9999
2 44059  87.9082 224.5112 0002235  89.6803 270.4584 13.16593391354554
ONEWEB-0007             
1 44060U 19010D   26189.71115714  .00000092  00000+0  20907-3 0  9999
2 44060  87.8990 254.9328 0001873 104.7281 255.4057 13.15547560354201
ONEWEB-0006             
1 44061U 19010E   26189.71511505  .00000172  00000+0  42262-3 0  9995
2 44061  87.9003 254.8981 0002192 101.8744 258.2633 13.15550563354252
ONEWEB-0011             
1 44062U 19010F   26189.68341733 -.00000064  00000+0 -20499-3 0  9996
2 44062  87.8999 254.9149 0002256  98.9804 261.1581 13.15549076354248
ONEWEB-0013             
1 45131U 20008A   26189.64146504 -.00000634  00000+0 -18761-2 0  9999
2 45131  87.8502  48.4948 0001218  50.4928 309.6306 13.09461356308874
ONEWEB-0017             
1 45132U 20008B   26189.60894641 -.00000087  00000+0 -28542-3 0  9999
2 45132  87.8817  31.9996 0001926  92.2134 267.9213 13.10377894310751
ONEWEB-0020             
1 45133U 20008C   26189.50201420 -.00000350  00000+0 -10399-2 0  9999
2 45133  87.8817  32.0201 0001860  85.5796 274.5544 13.10369241311130
ONEWEB-0021             
1 45134U 20008D   26189.59363084 -.00000708  00000+0 -20645-2 0  9996
2 45134  87.8813  32.0165 0001690  88.2363 271.8958 13.10372242311456
ONEWEB-0023             
1 45136U 20008F   26189.60466965 -.00000430  00000+0 -12692-2 0  9997
2 45136  87.8830  31.9981 0001879  80.8251 279.3089 13.10374787310884
ONEWEB-0024             
1 45137U 20008G   26189.50044612 -.00000268  00000+0 -80356-3 0  9990
2 45137  87.8823  32.0119 0001882  92.0745 268.0597 13.10369636311033
ONEWEB-0025             
1 45138U 20008H   26189.50017620 -.00000296  00000+0 -88362-3 0  9996
2 45138  87.8825  32.0021 0002284  82.1440 277.9947 13.10368863311362
ONEWEB-0026             
1 45139U 20008J   26189.90315117  .00000394  00000+0  10771-2 0  9998
2 45139  87.8878  16.7436 0001971  91.6900 268.4454 13.11415396313958
ONEWEB-0028             
1 45140U 20008K   26189.87856508  .00000167  00000+0  43614-3 0  9991
2 45140  87.8875  16.7558 0001381  75.0455 285.0826 13.11418267311460
ONEWEB-0032             
1 45141U 20008L   26189.61077590 -.00000160  00000+0 -49551-3 0  9991
2 45141  87.8819  32.0007 0001510  72.7077 287.4215 13.10375338311106
